{
    "links": {
        "self": "http://www.neowsapp.com/rest/v1/neo/3607665?api_key=iIulBulltgU6a56xZRHN4H3l9WmuAYTsLGpBGhQ2"
    },
    "id": "3607665",
    "neo_reference_id": "3607665",
    "name": "(2012 PM28)",
    "designation": "2012 PM28",
    "nasa_jpl_url": "http://ssd.jpl.nasa.gov/sbdb.cgi?sstr=3607665",
    "absolute_magnitude_h": 22.8,
    "estimated_diameter": {
        "kilometers": {
            "estimated_diameter_min": 0.0732073989,
            "estimated_diameter_max": 0.1636967205
        },
        "meters": {
            "estimated_diameter_min": 73.2073989347,
            "estimated_diameter_max": 163.696720474
        },
        "miles": {
            "estimated_diameter_min": 0.0454889547,
            "estimated_diameter_max": 0.1017163949
        },
        "feet": {
            "estimated_diameter_min": 240.181762721,
            "estimated_diameter_max": 537.0627483999
        }
    },
    "is_potentially_hazardous_asteroid": false,
    "close_approach_data": [
        {
            "close_approach_date": "2012-09-10",
            "close_approach_date_full": "2012-Sep-10 19:10",
            "epoch_date_close_approach": 1347304200000,
            "relative_velocity": {
                "kilometers_per_second": "17.6485606935",
                "kilometers_per_hour": "63534.8184966637",
                "miles_per_hour": "39478.0654153297"
            },
            "miss_distance": {
                "astronomical": "0.1287468124",
                "lunar": "50.0825100236",
                "kilometers": "19260248.904329588",
                "miles": "11967763.7165727944"
            },
            "orbiting_body": "Earth"
        }
    ],
    "orbital_data": {
        "orbit_id": "8",
        "orbit_determination_date": "2017-04-06 08:49:17",
        "first_observation_date": "2012-08-13",
        "last_observation_date": "2012-08-23",
        "data_arc_in_days": 10,
        "observations_used": 13,
        "orbit_uncertainty": "8",
        "minimum_orbit_intersection": ".0957915",
        "jupiter_tisserand_invariant": "3.739",
        "epoch_osculation": "2456153.5",
        "eccentricity": ".6734131446169856",
        "semi_major_axis": "1.806560927265089",
        "inclination": "9.615220311866418",
        "ascending_node_longitude": "309.9377400597412",
        "orbital_period": "886.905496356398",
        "perihelion_distance": ".5899990522933281",
        "perihelion_argument": "126.8470652071216",
        "aphelion_distance": "3.023122802236851",
        "perihelion_time": "2456231.535489373449",
        "mean_anomaly": "328.3249497383285",
        "mean_motion": ".405905704135287",
        "equinox": "J2000",
        "orbit_class": {
            "orbit_class_type": "APO",
            "orbit_class_description": "Near-Earth asteroid orbits which cross the Earth’s orbit similar to that of 1862 Apollo",
            "orbit_class_range": "a (semi-major axis) > 1.0 AU; q (perihelion) < 1.017 AU"
        }
    },
    "is_sentry_object": false
}